[{"OBJECT_NAME":"STARLINK-31582","OBJECT_ID":"2024-074M","EPOCH":"2026-03-08T19:03:00.463968","MEAN_MOTION":15.27571925,"ECCENTRICITY":6.456e-5,"INCLINATION":42.9994,"RA_OF_ASC_NODE":348.9022,"ARG_OF_PERICENTER":357.187,"MEAN_ANOMALY":2.8978,"EPHEMERIS_TYPE":0,"CLASSIFICATION_TYPE":"U","NORAD_CAT_ID":59545,"ELEMENT_SET_NO":999,"REV_AT_EPOCH":10587,"BSTAR":-4.4703632e-5,"MEAN_MOTION_DOT":-1.491e-5,"MEAN_MOTION_DDOT":0},{"OBJECT_NAME":"EDISON-1","OBJECT_ID":"2025-009B","EPOCH":"2026-03-09T19:16:13.822464","MEAN_MOTION":15.29042904,"ECCENTRICITY":0.00043285,"INCLINATION":97.4042,"RA_OF_ASC_NODE":151.6286,"ARG_OF_PERICENTER":306.4185,"MEAN_ANOMALY":53.6655,"EPHEMERIS_TYPE":0,"CLASSIFICATION_TYPE":"U","NORAD_CAT_ID":62610,"ELEMENT_SET_NO":999,"REV_AT_EPOCH":6375,"BSTAR":0.00052814963,"MEAN_MOTION_DOT":0.00014835,"MEAN_MOTION_DDOT":0}]
